{
  "type": "FeatureCollection",
  "features": [
    {
      "type": "Feature",
      "properties": {
        "norad_id": 40069,
        "name": "METEOR-M 2",
        "group": "weather",
        "lat": 19.957813082517813,
        "lon": 157.01714229606378,
        "alt_km": 816.9434776111802,
        "timestamp": "2025-12-22T16:55:17.091353+00:00",
        "meta_object_name": "METEOR-M 2",
        "meta_object_id": "2014-037A",
        "meta_epoch": "2025-12-22T06:02:08.583072",
        "meta_mean_motion": 14.21390311,
        "meta_eccentricity": 0.00054567,
        "meta_inclination": 98.4907,
        "meta_ra_of_asc_node": 333.4714,
        "meta_arg_of_pericenter": 179.5704,
        "meta_mean_anomaly": 180.548,
        "meta_ephemeris_type": 0,
        "meta_classification_type": "U",
        "meta_norad_cat_id": 40069,
        "meta_element_set_no": 999,
        "meta_rev_at_epoch": 59418,
        "meta_bstar": 0.00010205562,
        "meta_mean_motion_dot": 1.81e-06,
        "meta_mean_motion_ddot": 0,
        "tle_line1": "1 40069U 14037A   25356.25148823  .00000181  00000+0  10206-3 0  9999",
        "tle_line2": "2 40069  98.4907 333.4714 0005456 179.5704 180.5480 14.21390311594184"
      },
      "geometry": {
        "type": "Point",
        "coordinates": [
          157.01714229606378,
          19.957813082517813
        ]
      }
    },
    {
      "type": "Feature",
      "properties": {
        "norad_id": 40267,
        "name": "HIMAWARI-8",
        "group": "weather",
        "lat": 0.021346427186131337,
        "lon": 125.97789133970203,
        "alt_km": 35790.343251389386,
        "timestamp": "2025-12-22T16:55:17.091366+00:00",
        "meta_object_name": "HIMAWARI-8",
        "meta_object_id": "2014-060A",
        "meta_epoch": "2025-12-22T05:16:30.955872",
        "meta_mean_motion": 1.00270276,
        "meta_eccentricity": 9.068e-05,
        "meta_inclination": 0.0389,
        "meta_ra_of_asc_node": 131.2732,
        "meta_arg_of_pericenter": 166.0851,
        "meta_mean_anomaly": 13.4605,
        "meta_ephemeris_type": 0,
        "meta_classification_type": "U",
        "meta_norad_cat_id": 40267,
        "meta_element_set_no": 999,
        "meta_rev_at_epoch": 4098,
        "meta_bstar": 0,
        "meta_mean_motion_dot": -2.54e-06,
        "meta_mean_motion_ddot": 0,
        "tle_line1": "1 40267U 14060A   25356.21980273 -.00000254  00000+0  00000+0 0  9993",
        "tle_line2": "2 40267   0.0389 131.2732 0000906 166.0851  13.4605  1.00270276 40987"
      },
      "geometry": {
        "type": "Point",
        "coordinates": [
          125.97789133970203,
          0.021346427186131337
        ]
      }
    },
    {
      "type": "Feature",
      "properties": {
        "norad_id": 40367,
        "name": "FENGYUN 2G",
        "group": "weather",
        "lat": 0.8814461931316675,
        "lon": 84.48412836088909,
        "alt_km": 35800.05018401587,
        "timestamp": "2025-12-22T16:55:17.091378+00:00",
        "meta_object_name": "FENGYUN 2G",
        "meta_object_id": "2014-090A",
        "meta_epoch": "2025-12-22T01:39:14.264640",
        "meta_mean_motion": 1.00260639,
        "meta_eccentricity": 0.00026502,
        "meta_inclination": 5.1903,
        "meta_ra_of_asc_node": 74.9911,
        "meta_arg_of_pericenter": 204.0902,
        "meta_mean_anomaly": 295.8253,
        "meta_ephemeris_type": 0,
        "meta_classification_type": "U",
        "meta_norad_cat_id": 40367,
        "meta_element_set_no": 999,
        "meta_rev_at_epoch": 4022,
        "meta_bstar": 0,
        "meta_mean_motion_dot": -2.79e-06,
        "meta_mean_motion_ddot": 0,
        "tle_line1": "1 40367U 14090A   25356.06891510 -.00000279  00000+0  00000+0 0  9992",
        "tle_line2": "2 40367   5.1903  74.9911 0002650 204.0902 295.8253  1.00260639 40220"
      },
      "geometry": {
        "type": "Point",
        "coordinates": [
          84.48412836088909,
          0.8814461931316675
        ]
      }
    },
    {
      "type": "Feature",
      "properties": {
        "norad_id": 40732,
        "name": "METEOSAT-11 (MSG-4)",
        "group": "weather",
        "lat": -2.702652730080061,
        "lon": -5.468557050189332,
        "alt_km": 35789.49844880506,
        "timestamp": "2025-12-22T16:55:17.091390+00:00",
        "meta_object_name": "METEOSAT-11 (MSG-4)",
        "meta_object_id": "2015-034A",
        "meta_epoch": "2025-12-22T04:38:57.052896",
        "meta_mean_motion": 1.00270451,
        "meta_eccentricity": 7.893e-05,
        "meta_inclination": 2.7599,
        "meta_ra_of_asc_node": 71.9763,
        "meta_arg_of_pericenter": 136.9247,
        "meta_mean_anomaly": 321.0298,
        "meta_ephemeris_type": 0,
        "meta_classification_type": "U",
        "meta_norad_cat_id": 40732,
        "meta_element_set_no": 999,
        "meta_rev_at_epoch": 544,
        "meta_bstar": 0,
        "meta_mean_motion_dot": 8.1e-07,
        "meta_mean_motion_ddot": 0,
        "tle_line1": "1 40732U 15034A   25356.19371589  .00000081  00000+0  00000+0 0  9990",
        "tle_line2": "2 40732   2.7599  71.9763 0000789 136.9247 321.0298  1.00270451  5447"
      },
      "geometry": {
        "type": "Point",
        "coordinates": [
          -5.468557050189332,
          -2.702652730080061
        ]
      }
    },
    {
      "type": "Feature",
      "properties": {
        "norad_id": 41105,
        "name": "ELEKTRO-L 2",
        "group": "weather",
        "lat": -6.134523372947661,
        "lon": -29.182559575023838,
        "alt_km": 35777.03379887831,
        "timestamp": "2025-12-22T16:55:17.091403+00:00",
        "meta_object_name": "ELEKTRO-L 2",
        "meta_object_id": "2015-074A",
        "meta_epoch": "2025-12-22T01:06:40.663872",
        "meta_mean_motion": 1.0027241,
        "meta_eccentricity": 0.00035105,
        "meta_inclination": 6.2477,
        "meta_ra_of_asc_node": 72.7176,
        "meta_arg_of_pericenter": 208.8896,
        "meta_mean_anomaly": 171.4459,
        "meta_ephemeris_type": 0,
        "meta_classification_type": "U",
        "meta_norad_cat_id": 41105,
        "meta_element_set_no": 999,
        "meta_rev_at_epoch": 3673,
        "meta_bstar": 0,
        "meta_mean_motion_dot": -9.9e-07,
        "meta_mean_motion_ddot": 0,
        "tle_line1": "1 41105U 15074A   25356.04630398 -.00000099  00000+0  00000+0 0  9999",
        "tle_line2": "2 41105   6.2477  72.7176 0003510 208.8896 171.4459  1.00272410 36736"
      },
      "geometry": {
        "type": "Point",
        "coordinates": [
          -29.182559575023838,
          -6.134523372947661
        ]
      }
    },
    {
      "type": "Feature",
      "properties": {
        "norad_id": 41752,
        "name": "INSAT-3DR",
        "group": "weather",
        "lat": -0.03196452862421739,
        "lon": 59.39711164618566,
        "alt_km": 35836.86871531076,
        "timestamp": "2025-12-22T16:55:17.091415+00:00",
        "meta_object_name": "INSAT-3DR",
        "meta_object_id": "2016-054A",
        "meta_epoch": "2025-12-22T03:14:42.620928",
        "meta_mean_motion": 1.00271607,
        "meta_eccentricity": 0.00141706,
        "meta_inclination": 0.1142,
        "meta_ra_of_asc_node": 86.2504,
        "meta_arg_of_pericenter": 185.4248,
        "meta_mean_anomaly": 301.9366,
        "meta_ephemeris_type": 0,
        "meta_classification_type": "U",
        "meta_norad_cat_id": 41752,
        "meta_element_set_no": 999,
        "meta_rev_at_epoch": 3404,
        "meta_bstar": 0,
        "meta_mean_motion_dot": -5.5e-07,
        "meta_mean_motion_ddot": 0,
        "tle_line1": "1 41752U 16054A   25356.13521552 -.00000055  00000+0  00000+0 0  9999",
        "tle_line2": "2 41752   0.1142  86.2504 0014170 185.4248 301.9366  1.00271607 34042"
      },
      "geometry": {
        "type": "Point",
        "coordinates": [
          59.39711164618566,
          -0.03196452862421739
        ]
      }
    },
    {
      "type": "Feature",
      "properties": {
        "norad_id": 41836,
        "name": "HIMAWARI-9",
        "group": "weather",
        "lat": 0.039485704521261045,
        "lon": 126.10126974711176,
        "alt_km": 35791.48863115367,
        "timestamp": "2025-12-22T16:55:17.091427+00:00",
        "meta_object_name": "HIMAWARI-9",
        "meta_object_id": "2016-064A",
        "meta_epoch": "2025-12-21T22:25:41.083392",
        "meta_mean_motion": 1.00273007,
        "meta_eccentricity": 0.00015095,
        "meta_inclination": 0.0167,
        "meta_ra_of_asc_node": 21.999,
        "meta_arg_of_pericenter": 310.9837,
        "meta_mean_anomaly": 234.9553,
        "meta_ephemeris_type": 0,
        "meta_classification_type": "U",
        "meta_norad_cat_id": 41836,
        "meta_element_set_no": 999,
        "meta_rev_at_epoch": 3343,
        "meta_bstar": 0,
        "meta_mean_motion_dot": 0,
        "meta_mean_motion_ddot": 0,
        "tle_line1": "1 41836U 16064A   25355.93450328  .00000000  00000+0  00000+0 0  9991",
        "tle_line2": "2 41836   0.0167  21.9990 0001509 310.9837 234.9553  1.00273007 33438"
      },
      "geometry": {
        "type": "Point",
        "coordinates": [
          126.10126974711176,
          0.039485704521261045
        ]
      }
    }
  ]
}